MTI                     
1 26102U 00014A   17324.65571663  .00005405  00000-0  10273-3 0  9992
2 26102  97.5789 143.2334 0009264  65.7195 351.8508 15.48682448978725
CFESAT                  
1 30777U 07006F   17324.60714409  .00003210  00000-0  10266-3 0  9999
2 30777  35.4247 178.3120 0006686 315.1488  44.8696 15.32089848592000
SPIRALE A               
1 33751U 09008C   17323.51275119  .00000035  00000-0  91183-4 0  9997
2 33751   2.0796  16.8710 5491960   7.7557 358.1625  4.58671370117980
SPIRALE B               
1 33752U 09008D   17316.96536724  .00001447  00000-0  30501-3 0  9995
2 33752   2.0333 287.2800 6952676 183.7213 165.2573  2.70529401 78875
SAPPHIRE                
1 39088U 13009C   17324.66672791  .00000019  00000-0  22444-4 0  9992
2 39088  98.5424 166.0329 0011161 187.4929 172.6091 14.34157240247795
